NOAA 1 [-]              
1 04793U 70106A   17337.63746403 -.00000027  00000-0  11209-3 0  9997
2 04793 101.7817  41.7724 0031573 291.1676 195.2559 12.53983181149917
NOAA 2 [-]              
1 06235U 72082A   17337.50602567 -.00000045  00000-0  50061-6 0  9995
2 06235 101.7085 299.9810 0004278  22.2612  87.6037 12.53099674 64652
NOAA 3 [-]              
1 06920U 73086A   17337.55688733 -.00000044  00000-0  20835-5 0  9999
2 06920 101.9655 304.1193 0006505 117.6288 358.0779 12.40352340995541
NOAA 4 [-]              
1 07529U 74089A   17337.50345906 -.00000041  00000-0  18662-4 0  9997
2 07529 101.6667 303.1189 0009297  52.3224  58.1841 12.53117052969246
NOAA 5 [-]              
1 09057U 76077A   17337.57835344 -.00000044  00000-0 -67644-5 0  9990
2 09057 101.8515 314.2021 0009975 334.6924 135.8195 12.37761215868962
TIROS N [P]             
1 11060U 78096A   17337.59047037  .00000006  00000-0  24764-4 0  9997
2 11060  98.8728  27.7462 0010175 212.6332 147.4215 14.18176926236755
NOAA 6 [P]              
1 11416U 79057A   17337.59528873  .00000036  00000-0  29028-4 0  9993
2 11416  98.5943 324.1410 0011388 106.1035 254.1403 14.33452512  4132
NOAA 7 [-]              
1 12553U 81059A   17337.61915622 -.00000023  00000-0  11604-4 0  9994
2 12553  99.0689 322.5455 0012137 133.0303 345.9609 14.17230979883101
NOAA 8 [-]              
1 13923U 83022A   17337.57052264  .00000022  00000-0  25840-4 0  9992
2 13923  98.5277 323.7404 0015857  29.4073 330.7998 14.28616496805821
NOAA 9 [P]              
1 15427U 84123A   17337.50452792 -.00000013  00000-0  15653-4 0  9991
2 15427  98.8228 279.6356 0014477 193.3638 279.3927 14.16019848702338
NOAA 10 [-]             
1 16969U 86073A   17337.60548590  .00000010  00000-0  20877-4 0  9992
2 16969  98.4619 341.0233 0012941 134.4706 333.7229 14.28027626624355
NOAA 11 [-]             
1 19531U 88089A   17337.59103687 -.00000009  00000-0  16738-4 0  9991
2 19531  98.5291  28.9247 0010093 271.6889  88.3129 14.15218190506465
NOAA 12 [-]             
1 21263U 91032A   17337.55630494  .00000006  00000-0  20472-4 0  9991
2 21263  98.5516 357.6448 0014350 143.6009 216.6150 14.25856397380869
NOAA 13 [-]             
1 22739U 93050A   17337.59785239 -.00000003  00000-0  20668-4 0  9999
2 22739  98.5381  18.6986 0010364  54.5661 305.6478 14.12695622253111
NOAA 14 [-]             
1 23455U 94089A   17337.35507639 -.00000004  00000-0  20389-4 0  9999
2 23455  98.6710  47.4859 0010048  38.4801 321.7087 14.14107833182748
NOAA 15 [B]             
1 25338U 98030A   17337.61748194  .00000037  00000-0  34422-4 0  9991
2 25338  98.7781 348.8372 0011563  76.5383 283.7084 14.25828874 16891
NOAA 16 [-]             
1 26536U 00055A   17337.28741969  .00000009  00000-0  28306-4 0  9991
2 26536  98.8401  48.1427 0010306 196.7421 163.3413 14.13192465886784
NOAA 17 [-]             
1 27453U 02032A   17337.55325967 -.00000012  00000-0  12976-4 0  9994
2 27453  98.4589 295.6947 0012776  66.1513 294.1005 14.25001654802877
NOAA 18 [B]             
1 28654U 05018A   17337.58204573  .00000035  00000-0  44103-4 0  9998
2 28654  99.1686   3.8249 0013651 319.3180  40.6971 14.12359369646076
NOAA 19 [+]             
1 33591U 09005A   17337.60084976  .00000052  00000-0  53258-4 0  9990
2 33591  99.1165 307.0245 0014327 152.6511 207.5417 14.12234042454308
NPP [+]                 
1 37849U 11061A   17337.46968733  .00000003  00000-0  22139-4 0  9991
2 37849  98.7180 273.7515 0001417  63.1278  46.8499 14.19555254316119
JPSS-1 [+]              
1 43013U 17073A   17337.86107330 -.00000075  00000-0 -14039-4 0  9993
2 43013  98.7115 274.1501 0002574  87.1978 272.9494 14.21797998  2198
